start=new Date('2022-09-30T00:00:00.000Z').valueOf();
sats=[{"GP_ID":"213834950","TLE_LINE1":"1 47752U 21017AG  22272.64298545 -.00009495  00000-0 -61871-3 0  9999","TLE_LINE2":"2 47752  53.0545  89.7214 0001781  69.6261 290.4919 15.06437864 88382","MEAN_ANOMALY":"290.4919","DECAY_DATE":null,"RCS_SIZE":"MEDIUM","OBJECT_NAME":"STARLINK-2169","MEAN_MOTION_DDOT":"0.0000000000000","ELEMENT_SET_NO":"999","MEAN_MOTION":"15.06437864","SITE":"AFETR","PERIOD":"95.590","BSTAR":"-0.00061871000000","OBJECT_ID":"2021-017AG","COUNTRY_CODE":"US","NORAD_CAT_ID":"47752","INCLINATION":"53.0545","SEMIMAJOR_AXIS":"6925.233","MEAN_ELEMENT_THEORY":"SGP4","ARG_OF_PERICENTER":"69.6261","ECCENTRICITY":"0.00017810","FILE":"3587117","EPOCH":"2022-09-29T15:25:53.942880","CLASSIFICATION_TYPE":"U","RA_OF_ASC_NODE":"89.7214","LAUNCH_DATE":"2021-03-04","OBJECT_TYPE":"PAYLOAD","TIME_SYSTEM":"UTC","EPHEMERIS_TYPE":"0","REV_AT_EPOCH":"8838","MEAN_MOTION_DOT":"-0.00009495","CENTER_NAME":"EARTH","APOAPSIS":"548.331","PERIAPSIS":"545.864","REF_FRAME":"TEME"},{"DECAY_DATE":null,"RCS_SIZE":"LARGE","TLE_LINE1":"1 47753U 21017AH  22272.61856751  .00000238  00000-0  34860-4 0  9999","GP_ID":"213835200","TLE_LINE2":"2 47753  53.0556  94.8396 0001183  79.2979 280.8143 15.06405389 88303","MEAN_ANOMALY":"280.8143","OBJECT_ID":"2021-017AH","MEAN_MOTION":"15.06405389","SITE":"AFETR","PERIOD":"95.592","OBJECT_NAME":"STARLINK-2170","MEAN_MOTION_DDOT":"0.0000000000000","ELEMENT_SET_NO":"999","BSTAR":"0.00003486000000","ECCENTRICITY":"0.00011830","ARG_OF_PERICENTER":"79.2979","FILE":"3587117","NORAD_CAT_ID":"47753","COUNTRY_CODE":"US","MEAN_ELEMENT_THEORY":"SGP4","SEMIMAJOR_AXIS":"6925.332","INCLINATION":"53.0556","EPHEMERIS_TYPE":"0","MEAN_MOTION_DOT":"0.00000238","REV_AT_EPOCH":"8830","TIME_SYSTEM":"UTC","PERIAPSIS":"546.378","REF_FRAME":"TEME","CENTER_NAME":"EARTH","APOAPSIS":"548.016","RA_OF_ASC_NODE":"94.8396","EPOCH":"2022-09-29T14:50:44.232864","CLASSIFICATION_TYPE":"U","OBJECT_TYPE":"PAYLOAD","LAUNCH_DATE":"2021-03-04"},{"INCLINATION":"53.0529","SEMIMAJOR_AXIS":"6925.394","MEAN_ELEMENT_THEORY":"SGP4","COUNTRY_CODE":"US","NORAD_CAT_ID":"47754","FILE":"3587117","ARG_OF_PERICENTER":"81.3145","ECCENTRICITY":"0.00013010","LAUNCH_DATE":"2021-03-04","OBJECT_TYPE":"PAYLOAD","RA_OF_ASC_NODE":"94.0745","EPOCH":"2022-09-29T18:54:55.372032","CLASSIFICATION_TYPE":"U","APOAPSIS":"548.160","CENTER_NAME":"EARTH","REF_FRAME":"TEME","PERIAPSIS":"546.358","TIME_SYSTEM":"UTC","MEAN_MOTION_DOT":"-0.00000778","REV_AT_EPOCH":"8829","EPHEMERIS_TYPE":"0","MEAN_ANOMALY":"278.7992","TLE_LINE2":"2 47754  53.0529  94.0745 0001301  81.3145 278.7992 15.06385067 88291","GP_ID":"213835451","TLE_LINE1":"1 47754U 21017AJ  22272.78814088 -.00000778  00000-0 -33325-4 0  9991","RCS_SIZE":"LARGE","DECAY_DATE":null,"BSTAR":"-0.00003332500000","ELEMENT_SET_NO":"999","OBJECT_NAME":"STARLINK-2171","MEAN_MOTION_DDOT":"0.0000000000000","PERIOD":"95.593","SITE":"AFETR","MEAN_MOTION":"15.06385067","OBJECT_ID":"2021-017AJ"},{"MEAN_ANOMALY":"291.1650","TLE_LINE2":"2 47756  53.0540  94.0955 0001324  68.9481 291.1650 15.06395036 88330","TLE_LINE1":"1 47756U 21017AL  22272.78444883 -.00003897  00000-0 -24288-3 0  9997","GP_ID":"213836195","RCS_SIZE":"LARGE","DECAY_DATE":null,"BSTAR":"-0.00024288000000","SITE":"AFETR","PERIOD":"95.592","MEAN_MOTION":"15.06395036","ELEMENT_SET_NO":"999","OBJECT_NAME":"STARLINK-2174","MEAN_MOTION_DDOT":"0.0000000000000","OBJECT_ID":"2021-017AL","MEAN_ELEMENT_THEORY":"SGP4","SEMIMAJOR_AXIS":"6925.364","INCLINATION":"53.0540","NORAD_CAT_ID":"47756","COUNTRY_CODE":"US","FILE":"3587117","ECCENTRICITY":"0.00013240","ARG_OF_PERICENTER":"68.9481","OBJECT_TYPE":"PAYLOAD","LAUNCH_DATE":"2021-03-04","RA_OF_ASC_NODE":"94.0955","EPOCH":"2022-09-29T18:49:36.378912","CLASSIFICATION_TYPE":"U","REF_FRAME":"TEME","PERIAPSIS":"546.312","APOAPSIS":"548.146","CENTER_NAME":"EARTH","MEAN_MOTION_DOT":"-0.00003897","REV_AT_EPOCH":"8833","EPHEMERIS_TYPE":"0","TIME_SYSTEM":"UTC"},{"COUNTRY_CODE":"US","NORAD_CAT_ID":"47757","SEMIMAJOR_AXIS":"6925.369","INCLINATION":"53.0536","MEAN_ELEMENT_THEORY":"SGP4","ARG_OF_PERICENTER":"81.6130","ECCENTRICITY":"0.00012870","FILE":"3586894","EPOCH":"2022-09-29T12:06:12.984480","CLASSIFICATION_TYPE":"U","RA_OF_ASC_NODE":"95.3377","LAUNCH_DATE":"2021-03-04","OBJECT_TYPE":"PAYLOAD","TIME_SYSTEM":"UTC","EPHEMERIS_TYPE":"0","MEAN_MOTION_DOT":"0.00000465","REV_AT_EPOCH":"8823","CENTER_NAME":"EARTH","APOAPSIS":"548.125","PERIAPSIS":"546.343","REF_FRAME":"TEME","TLE_LINE1":"1 47757U 21017AM  22272.50431695  .00000465  00000-0  50099-4 0  9991","GP_ID":"213805530","TLE_LINE2":"2 47757  53.0536  95.3377 0001287  81.6130 278.5004 15.06393310 88233","MEAN_ANOMALY":"278.5004","DECAY_DATE":null,"RCS_SIZE":"LARGE","OBJECT_NAME":"STARLINK-2175","MEAN_MOTION_DDOT":"0.0000000000000","ELEMENT_SET_NO":"999","MEAN_MOTION":"15.06393310","SITE":"AFETR","PERIOD":"95.593","BSTAR":"0.00005009900000","OBJECT_ID":"2021-017AM"},{"APOAPSIS":"548.303","CENTER_NAME":"EARTH","REF_FRAME":"TEME","PERIAPSIS":"546.160","TIME_SYSTEM":"UTC","MEAN_MOTION_DOT":"-0.00002044","REV_AT_EPOCH":"8817","EPHEMERIS_TYPE":"0","LAUNCH_DATE":"2021-03-04","OBJECT_TYPE":"PAYLOAD","RA_OF_ASC_NODE":"104.0151","EPOCH":"2022-09-29T19:14:50.139744","CLASSIFICATION_TYPE":"U","FILE":"3587117","ARG_OF_PERICENTER":"83.3353","ECCENTRICITY":"0.00015470","SEMIMAJOR_AXIS":"6925.366","INCLINATION":"53.0554","MEAN_ELEMENT_THEORY":"SGP4","COUNTRY_CODE":"US","NORAD_CAT_ID":"47760","OBJECT_ID":"2021-017AQ","BSTAR":"-0.00011838000000","ELEMENT_SET_NO":"999","OBJECT_NAME":"STARLINK-2178","MEAN_MOTION_DDOT":"0.0000000000000","SITE":"AFETR","PERIOD":"95.593","MEAN_MOTION":"15.06394148","RCS_SIZE":"LARGE","DECAY_DATE":null,"MEAN_ANOMALY":"276.7812","TLE_LINE2":"2 47760  53.0554 104.0151 0001547  83.3353 276.7812 15.06394148 88170","TLE_LINE1":"1 47760U 21017AQ  22272.80196921 -.00002044  00000-0 -11838-3 0  9992","GP_ID":"213834700"},{"BSTAR":"-0.00013160000000","MEAN_MOTION_DDOT":"0.0000000000000","OBJECT_NAME":"STARLINK-2179","ELEMENT_SET_NO":"999","MEAN_MOTION":"15.06384181","SITE":"AFETR","PERIOD":"95.593","OBJECT_ID":"2021-017AR","MEAN_ANOMALY":"269.3462","GP_ID":"213835952","TLE_LINE1":"1 47761U 21017AR  22272.83237306 -.00002240  00000-0 -13160-3 0  9997","TLE_LINE2":"2 47761  53.0539  93.8733 0001399  90.7688 269.3462 15.06384181 88291","RCS_SIZE":"LARGE","DECAY_DATE":null,"LAUNCH_DATE":"2021-03-04","OBJECT_TYPE":"PAYLOAD","EPOCH":"2022-09-29T19:58:37.032384","CLASSIFICATION_TYPE":"U","RA_OF_ASC_NODE":"93.8733","CENTER_NAME":"EARTH","APOAPSIS":"548.231","PERIAPSIS":"546.293","REF_FRAME":"TEME","TIME_SYSTEM":"UTC","EPHEMERIS_TYPE":"0","REV_AT_EPOCH":"8829","MEAN_MOTION_DOT":"-0.00002240","INCLINATION":"53.0539","SEMIMAJOR_AXIS":"6925.397","MEAN_ELEMENT_THEORY":"SGP4","COUNTRY_CODE":"US","NORAD_CAT_ID":"47761","FILE":"3587117","ARG_OF_PERICENTER":"90.7688","ECCENTRICITY":"0.00013990"},{"TLE_LINE2":"2 47762  53.0548 108.7756 0001379  80.2516 279.8629 15.06403027 88107","TLE_LINE1":"1 47762U 21017AS  22272.85862541  .00000167  00000-0  30121-4 0  9996","GP_ID":"213835695","MEAN_ANOMALY":"279.8629","DECAY_DATE":null,"RCS_SIZE":"LARGE","PERIOD":"95.592","SITE":"AFETR","MEAN_MOTION":"15.06403027","ELEMENT_SET_NO":"999","OBJECT_NAME":"STARLINK-2180","MEAN_MOTION_DDOT":"0.0000000000000","BSTAR":"0.00003012100000","OBJECT_ID":"2021-017AS","NORAD_CAT_ID":"47762","COUNTRY_CODE":"US","MEAN_ELEMENT_THEORY":"SGP4","INCLINATION":"53.0548","SEMIMAJOR_AXIS":"6925.339","ECCENTRICITY":"0.00013790","ARG_OF_PERICENTER":"80.2516","FILE":"3587117","EPOCH":"2022-09-29T20:36:25.235424","RA_OF_ASC_NODE":"108.7756","CLASSIFICATION_TYPE":"U","OBJECT_TYPE":"PAYLOAD","LAUNCH_DATE":"2021-03-04","MEAN_MOTION_DOT":"0.00000167","REV_AT_EPOCH":"8810","EPHEMERIS_TYPE":"0","TIME_SYSTEM":"UTC","REF_FRAME":"TEME","PERIAPSIS":"546.249","APOAPSIS":"548.159","CENTER_NAME":"EARTH"},{"OBJECT_ID":"2021-017AT","BSTAR":"0.00007155100000","PERIOD":"95.593","SITE":"AFETR","MEAN_MOTION":"15.06390277","ELEMENT_SET_NO":"999","OBJECT_NAME":"STARLINK-2181","MEAN_MOTION_DDOT":"0.0000000000000","RCS_SIZE":"LARGE","DECAY_DATE":null,"MEAN_ANOMALY":"308.4160","TLE_LINE2":"2 47763  53.0548  99.8849 0001864  51.6996 308.4160 15.06390277 88183","GP_ID":"213834951","TLE_LINE1":"1 47763U 21017AT  22272.60890601  .00000784  00000-0  71551-4 0  9995","REF_FRAME":"TEME","PERIAPSIS":"545.952","APOAPSIS":"548.534","CENTER_NAME":"EARTH","REV_AT_EPOCH":"8818","MEAN_MOTION_DOT":"0.00000784","EPHEMERIS_TYPE":"0","TIME_SYSTEM":"UTC","OBJECT_TYPE":"PAYLOAD","LAUNCH_DATE":"2021-03-04","EPOCH":"2022-09-29T14:36:49.479264","CLASSIFICATION_TYPE":"U","RA_OF_ASC_NODE":"99.8849","FILE":"3587117","ECCENTRICITY":"0.00018640","ARG_OF_PERICENTER":"51.6996","MEAN_ELEMENT_THEORY":"SGP4","SEMIMAJOR_AXIS":"6925.378","INCLINATION":"53.0548","NORAD_CAT_ID":"47763","COUNTRY_CODE":"US"},{"EPOCH":"2022-09-29T13:53:02.155488","CLASSIFICATION_TYPE":"U","RA_OF_ASC_NODE":"110.0150","OBJECT_TYPE":"PAYLOAD","LAUNCH_DATE":"2021-03-04","REV_AT_EPOCH":"8809","MEAN_MOTION_DOT":"0.00000546","EPHEMERIS_TYPE":"0","TIME_SYSTEM":"UTC","REF_FRAME":"TEME","PERIAPSIS":"546.424","APOAPSIS":"548.006","CENTER_NAME":"EARTH","NORAD_CAT_ID":"47764","COUNTRY_CODE":"US","MEAN_ELEMENT_THEORY":"SGP4","INCLINATION":"53.0534","SEMIMAJOR_AXIS":"6925.350","ECCENTRICITY":"0.00011420","ARG_OF_PERICENTER":"79.7010","FILE":"3586894","SITE":"AFETR","PERIOD":"95.592","MEAN_MOTION":"15.06399552","ELEMENT_SET_NO":"999","MEAN_MOTION_DDOT":"0.0000000000000","OBJECT_NAME":"STARLINK-2182","BSTAR":"0.00005555600000","OBJECT_ID":"2021-017AU","TLE_LINE2":"2 47764  53.0534 110.0150 0001142  79.7010 280.4107 15.06399552 88092","GP_ID":"213803779","TLE_LINE1":"1 47764U 21017AU  22272.57849717  .00000546  00000-0  55556-4 0  9997","MEAN_ANOMALY":"280.4107","DECAY_DATE":null,"RCS_SIZE":"LARGE"}];
